{
  "type": "FeatureCollection",
  "metadata": {
    "source": "google-sheet-migrado",
    "sheet_id": "1m1UVzUPzZdOBWmSFShpe8835YpWmHdWXnVtW7531tUY",
    "row_count": 118
  },
  "features": [
    {
      "type": "Feature",
      "properties": {
        "id": "1132698d-1592-4ca5-a063-8c4ef9a072f9",
        "name": "Alison Brophy",
        "sector": "Servicios",
        "municipality": "La Oliva",
        "province": "Las Palmas",
        "island": "Fuerteventura",
        "address": "Calle Lepanto 33, Corralejo",
        "phones": [
          "0034 677826366"
        ],
        "emails": [
          "strongertogetherfuerteventura@gmail.com"
        ],
        "url": ""
      },
      "geometry": {
        "type": "Point",
        "coordinates": [
          -13.8718733,
          28.7388871
        ]
      }
    },
    {
      "type": "Feature",
      "properties": {
        "id": "15361fff-ef78-4d9a-bee0-505094e9498f",
        "name": "SOVOA Inter",
        "sector": "Proyecto",
        "municipality": "Puerto del Rosario",
        "province": "Las Palmas",
        "island": "Fuerteventura",
        "address": "C/Los Jorge 11 Puerto del Rosario 35600",
        "phones": [
          "722748002"
        ],
        "emails": [
          "sovoainter2010@gmail.com"
        ],
        "url": ""
      },
      "geometry": {
        "type": "Point",
        "coordinates": [
          -13.86693,
          28.503608
        ]
      }
    },
    {
      "type": "Feature",
      "properties": {
        "id": "3dd578fe-2866-4581-af28-b9702b6b9700",
        "name": "Reserva de la Biosfera de Fuerteventura",
        "sector": "Plan",
        "municipality": "Puerto del Rosario",
        "province": "Las Palmas",
        "island": "Fuerteventura",
        "address": "Edificio del Cabildo Insular C/ dr. Edison sn segundo",
        "phones": [
          "928862300 ext 3032"
        ],
        "emails": [
          "rpbetmar@cabildofuer.es"
        ],
        "url": ""
      },
      "geometry": {
        "type": "Point",
        "coordinates": [
          -13.8606368,
          28.4985885
        ]
      }
    },
    {
      "type": "Feature",
      "properties": {
        "id": "a552cab7-112b-4b89-bbd5-b1e5bf19f85f",
        "name": "Federación de Asociaciones de Mujeres Arena y Laurisilva",
        "sector": "Proyecto",
        "municipality": "Puerto del Rosario",
        "province": "Las Palmas",
        "island": "Fuerteventura",
        "address": "Calle Fernandez Castañeyra nº 20, Puerto del Rosario 35600",
        "phones": [
          "928 04 00 86/673 84 78 87"
        ],
        "emails": [
          "mujeresftv@arenaylaurisilva.org"
        ],
        "url": ""
      },
      "geometry": {
        "type": "Point",
        "coordinates": [
          -13.860299,
          28.4970877
        ]
      }
    },
    {
      "type": "Feature",
      "properties": {
        "id": "32ad6b6e-fddf-4c6f-9138-89e91d33e112",
        "name": "Stronger Together Asc de Extranjeros",
        "sector": "Servicios",
        "municipality": "La Oliva",
        "province": "Las Palmas",
        "island": "Fuerteventura",
        "address": "Calle Lepanto 33, Corralejo, La Oliva 35660",
        "phones": [
          "606997094"
        ],
        "emails": [
          "strongertogetherfuerteventura@gmail.com"
        ],
        "url": ""
      },
      "geometry": {
        "type": "Point",
        "coordinates": [
          -13.8718733,
          28.7388871
        ]
      }
    },
    {
      "type": "Feature",
      "properties": {
        "id": "ffc635b1-df84-4da9-904d-10cd228df78a",
        "name": "ASOCIACIÓN CULTURAL MERIDIANO IMAGINARIO. CICRID. MUGACA",
        "sector": "Proyecto",
        "municipality": "Puerto del Rosario",
        "province": "Las Palmas",
        "island": "Fuerteventura",
        "address": "C/ HERMANOS MACHADO 2, PUERTO DEL ROSARIO",
        "phones": [],
        "emails": [],
        "url": ""
      },
      "geometry": {
        "type": "Point",
        "coordinates": [
          -13.8620124,
          28.4963508
        ]
      }
    },
    {
      "type": "Feature",
      "properties": {
        "id": "88a6df80-53fb-40e0-9ef3-2f9a4bbb9e77",
        "name": "Asociación de Vecinos Cafucast | Caleta de Fuste-Castillo",
        "sector": "Servicios",
        "municipality": "Antigua",
        "province": "Las Palmas",
        "island": "Fuerteventura",
        "address": "Calle Alcalde Marcial Sánchez Velázquez, 2; 35610, Antigua, Las Palmas",
        "phones": [
          "658 679 826"
        ],
        "emails": [
          "avcaletadefuste@gmail.com"
        ],
        "url": ""
      },
      "geometry": {
        "type": "Point",
        "coordinates": [
          -13.85551,
          28.39771
        ]
      }
    },
    {
      "type": "Feature",
      "properties": {
        "id": "f039e1dc-86ef-4ed4-a81a-4735a77b7dd8",
        "name": "Asociación de Vecinos de Costa de Antigua",
        "sector": "Servicios",
        "municipality": "Antigua",
        "province": "Las Palmas",
        "island": "Fuerteventura",
        "address": "Calle Roque del Este - Puerta 3, 35610; Antigua, Las Palmas",
        "phones": [
          "648 402 283"
        ],
        "emails": [
          "gianpietro.magagni@gmail.com"
        ],
        "url": ""
      },
      "geometry": {
        "type": "Point",
        "coordinates": [
          -13.8523157,
          28.4110726
        ]
      }
    },
    {
      "type": "Feature",
      "properties": {
        "id": "85dfa34a-79d3-4276-b131-243d84157d64",
        "name": "Asociación Para La Gestión Del Desarrollo Rural Maxorata Verde",
        "sector": "Proyecto",
        "municipality": "Puerto del Rosario",
        "province": "Las Palmas",
        "island": "Fuerteventura",
        "address": "Calle Lucha Canaria, 112; 35600, Puerto del Rosario, Las Palmas",
        "phones": [
          "633 093 903"
        ],
        "emails": [
          "gdrfuerteventura@gmail.com"
        ],
        "url": ""
      },
      "geometry": {
        "type": "Point",
        "coordinates": [
          -13.8697532,
          28.5078011
        ]
      }
    },
    {
      "type": "Feature",
      "properties": {
        "id": "b40dfaad-3ec0-4fc8-b20b-8fb25d3a5bfc",
        "name": "Centro de Educación de Infantil y Primaria Francisca Pérez",
        "sector": "Servicios",
        "municipality": "Antigua",
        "province": "Las Palmas",
        "island": "Fuerteventura",
        "address": "Calle La Cruz, 4 Triquivijate; 35639, Antigua, Las Palmas",
        "phones": [
          "928 429 797"
        ],
        "emails": [
          "35005641@gobiernodecanarias.org"
        ],
        "url": ""
      },
      "geometry": {
        "type": "Point",
        "coordinates": [
          -13.8610066,
          28.5000468
        ]
      }
    },
    {
      "type": "Feature",
      "properties": {
        "id": "8d05e5fc-927f-4fb1-b473-2ab491c9d2cc",
        "name": "Fundación Adsis Canarias",
        "sector": "Proyecto",
        "municipality": "Puerto del Rosario",
        "province": "Las Palmas",
        "island": "Fuerteventura",
        "address": "Calle Tenerife, 35. 1º Derecha; 35600, Puerto del Rosario, Las Palmas",
        "phones": [
          "669 737 226"
        ],
        "emails": [
          "elena.saavedra@fundacionadsis.org"
        ],
        "url": ""
      },
      "geometry": {
        "type": "Point",
        "coordinates": [
          -13.8689454,
          28.5032739
        ]
      }
    },
    {
      "type": "Feature",
      "properties": {
        "id": "c8e31658-5f8a-4ccd-83e4-26e55d3b3f73",
        "name": "Asociación Cultural Raíz del Pueblo",
        "sector": "Servicios",
        "municipality": "La Oliva",
        "province": "Las Palmas",
        "island": "Fuerteventura",
        "address": "Calle Francisco Fuentes Martín, 11; 35640, La Oliva, Las Palmas",
        "phones": [
          "699 041 651"
        ],
        "emails": [
          "info@raizdelpueblo.org"
        ],
        "url": ""
      },
      "geometry": {
        "type": "Point",
        "coordinates": [
          -13.9256646,
          28.6114877
        ]
      }
    },
    {
      "type": "Feature",
      "properties": {
        "id": "4edcb180-d12f-4005-8e3d-9e30dab5b850",
        "name": "Asociación Social Proyecto Ikual",
        "sector": "Proyecto",
        "municipality": "Puerto del Rosario",
        "province": "Las Palmas",
        "island": "Fuerteventura",
        "address": "Calle Secundino Alonso, 39, 2ª planta 35600 Puerto del Rosario, Las Palmas",
        "phones": [
          "669 033 767"
        ],
        "emails": [
          "beatricekunz@proyectoikual.com"
        ],
        "url": ""
      },
      "geometry": {
        "type": "Point",
        "coordinates": [
          -13.8623541,
          28.496484
        ]
      }
    },
    {
      "type": "Feature",
      "properties": {
        "id": "f5560050-8376-4aea-8993-ceaefd47eceb",
        "name": "Asociación Altihay",
        "sector": "Proyecto",
        "municipality": "Puerto del Rosario",
        "province": "Las Palmas",
        "island": "Fuerteventura",
        "address": "Calle Goya 3, Local 3; 35600, Puerto del Rosario, Las Palmas",
        "phones": [
          "669 512 694"
        ],
        "emails": [
          "altihay@felgtb.org"
        ],
        "url": ""
      },
      "geometry": {
        "type": "Point",
        "coordinates": [
          -13.8711659,
          28.4986813
        ]
      }
    },
    {
      "type": "Feature",
      "properties": {
        "id": "d89bdc68-a13b-45d0-b5bc-381c5028c551",
        "name": "Asociación Amanay",
        "sector": "Proyecto",
        "municipality": "La Oliva",
        "province": "Las Palmas",
        "island": "Fuerteventura",
        "address": "Calle Ciudad Jardín, 38; 35660, La Oliva, Las Palmas",
        "phones": [
          "665 415 476"
        ],
        "emails": [
          "directivoamanay@gmail.com"
        ],
        "url": ""
      },
      "geometry": {
        "type": "Point",
        "coordinates": [
          -13.8707787,
          28.7374261
        ]
      }
    },
    {
      "type": "Feature",
      "properties": {
        "id": "446e4fa4-ad13-4e35-ab80-80cdab0d5966",
        "name": "Fundación Canaria de apoyo a las personas con trastornos del Neurodesarrollo",
        "sector": "Servicios",
        "municipality": "Puerto del Rosario",
        "province": "Las Palmas",
        "island": "Fuerteventura",
        "address": "Calle Almirante Lallemand, 45; 35600, Puerto del Rosario; Las Palmas",
        "phones": [
          "605 835 608"
        ],
        "emails": [
          "funteac.porti@gmail.com"
        ],
        "url": ""
      },
      "geometry": {
        "type": "Point",
        "coordinates": [
          -13.851529,
          28.5009686
        ]
      }
    },
    {
      "type": "Feature",
      "properties": {
        "id": "defa16a6-3f0c-4098-b236-b90ff9aa1a82",
        "name": "Asociación Contra el Cáncer de Mama Metastásico Fuerteventura",
        "sector": "Servicios",
        "municipality": "Puerto del Rosario",
        "province": "Las Palmas",
        "island": "Fuerteventura",
        "address": "Calle Guadiana, 26, Bajo Derecha 35600, Puerto del Rosario; Las Palmas",
        "phones": [
          "666 831 997"
        ],
        "emails": [
          "contacto@cancerdemamaftv.com"
        ],
        "url": ""
      },
      "geometry": {
        "type": "Point",
        "coordinates": [
          -13.8652641,
          28.4944663
        ]
      }
    },
    {
      "type": "Feature",
      "properties": {
        "id": "58c04c6f-4b87-45bc-879a-c00cdba5f7df",
        "name": "Fundación Canaria Pequeño Valiente",
        "sector": "Servicios",
        "municipality": "Puerto del Rosario",
        "province": "Las Palmas",
        "island": "Fuerteventura",
        "address": "Calle Presidente Hormiga, 3; 35600, Puerto del Rosario, Las Palmas",
        "phones": [
          "621 239 866"
        ],
        "emails": [
          "trabajadorasocialfv@pequevaliente.com"
        ],
        "url": ""
      },
      "geometry": {
        "type": "Point",
        "coordinates": [
          -14.0560801,
          28.4252279
        ]
      }
    },
    {
      "type": "Feature",
      "properties": {
        "id": "56435e58-87f9-49ec-a494-0b6b427aa03b",
        "name": "Asociación majorera por la salud mental",
        "sector": "Proyecto",
        "municipality": "Puerto del Rosario",
        "province": "Las Palmas",
        "island": "Fuerteventura",
        "address": "Calle Comandante Díaz Trayter, 67; 35600, Puerto del Rosario, Las Palmas",
        "phones": [
          "637 892 440"
        ],
        "emails": [
          "asomasamen@yahoo.es"
        ],
        "url": ""
      },
      "geometry": {
        "type": "Point",
        "coordinates": [
          -13.8512212,
          28.5016741
        ]
      }
    },
    {
      "type": "Feature",
      "properties": {
        "id": "87bd6d73-d765-472b-89a6-3a734dba0d0b",
        "name": "Obra Social La Milagrosa, Hijas de la Caridad | Acción Social Vicenciana",
        "sector": "Servicios",
        "municipality": "La Oliva",
        "province": "Las Palmas",
        "island": "Fuerteventura",
        "address": "Calle La Milagrosa, 51; 35660, La Oliva, Las Palmas",
        "phones": [
          "682 127 080"
        ],
        "emails": [
          "o.socialfuertevent@gmail.com"
        ],
        "url": ""
      },
      "geometry": {
        "type": "Point",
        "coordinates": [
          -13.8685088,
          28.7405295
        ]
      }
    },
    {
      "type": "Feature",
      "properties": {
        "id": "fe61dfe0-cdd9-4964-82be-9fc1820dcb5c",
        "name": "Asociación de Familias Canarias | AFAMCA",
        "sector": "Proyecto",
        "municipality": "Puerto del Rosario",
        "province": "Las Palmas",
        "island": "Fuerteventura",
        "address": "Calle Secundino Alonso, 24, 2ºB; 35600, Puerto del Rosario, Las Palmas",
        "phones": [
          "684 770 016"
        ],
        "emails": [
          "fuerteventura@afamcatenerife.org"
        ],
        "url": ""
      },
      "geometry": {
        "type": "Point",
        "coordinates": [
          -13.8617952,
          28.4985197
        ]
      }
    },
    {
      "type": "Feature",
      "properties": {
        "id": "486ba53f-c563-4156-8da2-ffb78934b9d7",
        "name": "Asociación Fuertevida Parkinson No Limits",
        "sector": "Servicios",
        "municipality": "La Oliva",
        "province": "Las Palmas",
        "island": "Fuerteventura",
        "address": "Calle Cardón, Nº 34; 35650La Capellanía, La Oliva, Las Palmas",
        "phones": [
          "660 900 635"
        ],
        "emails": [
          "info@parkinsonnolimits.com"
        ],
        "url": ""
      },
      "geometry": {
        "type": "Point",
        "coordinates": [
          -13.8911829,
          28.6959898
        ]
      }
    },
    {
      "type": "Feature",
      "properties": {
        "id": "44cedbcd-3839-4123-9f77-2c36d2f00c76",
        "name": "Asociación Provincial de Esclerosis Múltiple",
        "sector": "Servicios",
        "municipality": "Puerto del Rosario",
        "province": "Las Palmas",
        "island": "Fuerteventura",
        "address": "Calle Virgen de la Peña nº137; 35600, Puerto del Rosario, Las Palmas",
        "phones": [
          "608 399 045"
        ],
        "emails": [
          "info@apemlaspalmas.org"
        ],
        "url": ""
      },
      "geometry": {
        "type": "Point",
        "coordinates": [
          -13.8692019,
          28.5011615
        ]
      }
    },
    {
      "type": "Feature",
      "properties": {
        "id": "21caa60c-9f7b-4785-8972-9977b1da6b8a",
        "name": "Asociación Fuertetribu",
        "sector": "Proyecto",
        "municipality": "La Oliva",
        "province": "Las Palmas",
        "island": "Fuerteventura",
        "address": "Calle Marrajo, 7; 35660, La Oliva, Las Palmas",
        "phones": [
          "622 791 642"
        ],
        "emails": [
          "info@fuertetribusurf.com"
        ],
        "url": ""
      },
      "geometry": {
        "type": "Point",
        "coordinates": [
          -13.8655161,
          28.7440353
        ]
      }
    },
    {
      "type": "Feature",
      "properties": {
        "id": "5f4deb5f-f980-469a-bda2-96b3416b4cd7",
        "name": "Asociación Futuro Isleño Acción Social",
        "sector": "Proyecto",
        "municipality": "Puerto del Rosario",
        "province": "Las Palmas",
        "island": "Fuerteventura",
        "address": "Calle Almirante Colón, nº 46, 2º B; 35600, Puerto del Rosario, Las Palmas",
        "phones": [
          "604 194 932"
        ],
        "emails": [
          "futuroinsular@gmail.com"
        ],
        "url": ""
      },
      "geometry": {
        "type": "Point",
        "coordinates": [
          -13.8515509,
          28.5023512
        ]
      }
    },
    {
      "type": "Feature",
      "properties": {
        "id": "cd2afc30-0b01-4801-9a23-5a09aaf5d04a",
        "name": "Asociación Comunidades de Propietarios de Antigua",
        "sector": "Servicios",
        "municipality": "Antigua",
        "province": "Las Palmas",
        "island": "Fuerteventura",
        "address": "Calle Berlina, 3 - Local Bougainville; 35610, Antigua, Las Palmas",
        "phones": [
          "681 625 448"
        ],
        "emails": [
          "primi.marina@gmail.com"
        ],
        "url": ""
      },
      "geometry": {
        "type": "Point",
        "coordinates": [
          -13.8518791,
          28.4131597
        ]
      }
    },
    {
      "type": "Feature",
      "properties": {
        "id": "77a6d7d9-7b29-4849-89ca-68df9ba5ad7e",
        "name": "Ciudad Amiga de la Infancia Puerto del Rosario",
        "sector": "Programa",
        "municipality": "Puerto del Rosario",
        "province": "Las Palmas",
        "island": "Fuerteventura",
        "address": "Calle Calle Fernández Castañeyra, 2,; 35600, Puerto del Rosario, Las Palmas",
        "phones": [],
        "emails": [
          "cai@puertodelrosario.org"
        ],
        "url": ""
      },
      "geometry": {
        "type": "Point",
        "coordinates": [
          -13.8597594,
          28.4988181
        ]
      }
    },
    {
      "type": "Feature",
      "properties": {
        "id": "024e3480-5b75-48bb-b023-01866a5d51b1",
        "name": "Club de la Tercera Edad Carmen Martel Negrin",
        "sector": "Programa",
        "municipality": "Betancuria",
        "province": "Las Palmas",
        "island": "Fuerteventura",
        "address": "Calle Garachico s/n; 35637, Betancuria, Las Palmas",
        "phones": [
          "630 770 481"
        ],
        "emails": [
          "esocial@aytobetancuria.org"
        ],
        "url": ""
      },
      "geometry": {
        "type": "Point",
        "coordinates": [
          -14.0583632,
          28.4265699
        ]
      }
    },
    {
      "type": "Feature",
      "properties": {
        "id": "7184b3dd-9635-4ddc-be0f-4c08911c55dd",
        "name": "Asociación de Madres y Padres Escanfraga | CEIP Villaverde",
        "sector": "Servicios",
        "municipality": "La Oliva",
        "province": "Las Palmas",
        "island": "Fuerteventura",
        "address": "Carretera del Centro de Villaverde, Nº 125; 35640, La Oliva, Las Palmas",
        "phones": [
          "693 004 511"
        ],
        "emails": [
          "ampaescanfraga@gmail.com"
        ],
        "url": ""
      },
      "geometry": {
        "type": "Point",
        "coordinates": [
          -13.9089336,
          28.6375446
        ]
      }
    },
    {
      "type": "Feature",
      "properties": {
        "id": "07d6631a-4b48-4056-b9dc-d1d21a724d82",
        "name": "Club Deportivo de Tenis Smash",
        "sector": "Servicios",
        "municipality": "La Oliva",
        "province": "Las Palmas",
        "island": "Fuerteventura",
        "address": "Calle La Red, S/N; 35660; La Oliva, Las Palmas",
        "phones": [
          "645 061 317"
        ],
        "emails": [
          "tenissmash@gmail.com"
        ],
        "url": ""
      },
      "geometry": {
        "type": "Point",
        "coordinates": [
          -13.8677716,
          28.7337677
        ]
      }
    },
    {
      "type": "Feature",
      "properties": {
        "id": "22be9f98-965f-4dc5-bc2a-283dfee5d426",
        "name": "Grupo Ornitológico Alcaidón de Canarias",
        "sector": "Proyecto",
        "municipality": "La Oliva",
        "province": "Las Palmas",
        "island": "Fuerteventura",
        "address": "Calle Francisco Bordón Mendez, 40; 35640, La Oliva, Las Palmas",
        "phones": [
          "635 850 671"
        ],
        "emails": [
          "grupoalcaidon@gmail.com"
        ],
        "url": ""
      },
      "geometry": {
        "type": "Point",
        "coordinates": [
          -13.9257048,
          28.6121144
        ]
      }
    },
    {
      "type": "Feature",
      "properties": {
        "id": "26922d99-4d35-40ac-ace6-8fa2b1a35fa3",
        "name": "Asociación Fuerteventura Seals Airsoft",
        "sector": "Servicios",
        "municipality": "La Oliva",
        "province": "Las Palmas",
        "island": "Fuerteventura",
        "address": "Calle La Guancha, 22; 35640, La Oliva, Las Palmas",
        "phones": [
          "639 168 442"
        ],
        "emails": [
          "e@elustondo.es"
        ],
        "url": ""
      },
      "geometry": {
        "type": "Point",
        "coordinates": [
          -13.9115357,
          28.6145424
        ]
      }
    },
    {
      "type": "Feature",
      "properties": {
        "id": "083f8d08-e8ce-40a3-a3bb-fe20e4a97e1a",
        "name": "Asociación de Familias del Alumnado San Buenaventura | IES Puerto del Rosario",
        "sector": "Servicios",
        "municipality": "Puerto del Rosario",
        "province": "Las Palmas",
        "island": "Fuerteventura",
        "address": "Calle Gran Canaria, Nº 45; 35600, Puerto del Rosario, Las Palmas",
        "phones": [],
        "emails": [
          "ampasanbuenaventurafue@gmail.com"
        ],
        "url": ""
      },
      "geometry": {
        "type": "Point",
        "coordinates": [
          -13.866594,
          28.5026556
        ]
      }
    },
    {
      "type": "Feature",
      "properties": {
        "id": "d6b8989b-0f9d-4f18-a9a4-f60298dc96ac",
        "name": "Asociación de Madres y Padres El Pispo | CEIP Domingo Juan Manrique",
        "sector": "Servicios",
        "municipality": "Puerto del Rosario",
        "province": "Las Palmas",
        "island": "Fuerteventura",
        "address": "Calle Maestro Gonzalo Rodríguez de Vera, Nº 5; 35613, Puerto del Rosario, Las Palmas",
        "phones": [
          "669 797 255"
        ],
        "emails": [
          "ampaelpispo@gmail.com"
        ],
        "url": ""
      },
      "geometry": {
        "type": "Point",
        "coordinates": [
          -13.8627945,
          28.4997908
        ]
      }
    },
    {
      "type": "Feature",
      "properties": {
        "id": "3f88b409-2121-4827-8173-c501dde090b6",
        "name": "Asociación Sociocultural Animarte",
        "sector": "Proyecto",
        "municipality": "Puerto del Rosario",
        "province": "Las Palmas",
        "island": "Fuerteventura",
        "address": "Calle Virgen de la Peña, Nº 66, 2D; 35600, Puerto del Rosario, Las Palmas",
        "phones": [
          "658 032 802"
        ],
        "emails": [
          "asociacionculturalanimarte@gmail.com"
        ],
        "url": ""
      },
      "geometry": {
        "type": "Point",
        "coordinates": [
          -13.8694562,
          28.5013354
        ]
      }
    },
    {
      "type": "Feature",
      "properties": {
        "id": "d5948b9b-dcd6-4d19-9de4-6e96bc8b4c75",
        "name": "Asociación de Madres y Padres La Avutarda | CEIP La Hubara",
        "sector": "Servicios",
        "municipality": "Puerto del Rosario",
        "province": "Las Palmas",
        "island": "Fuerteventura",
        "address": "Calle Manuel Sánchez González, s/n; 35600, Puerto del Rosario, Las Palmas",
        "phones": [],
        "emails": [
          "ampacolegiolahubara@gmail.com"
        ],
        "url": ""
      },
      "geometry": {
        "type": "Point",
        "coordinates": [
          -13.8652188,
          28.4934877
        ]
      }
    },
    {
      "type": "Feature",
      "properties": {
        "id": "818bef03-7620-4ad2-bf8b-736b6d885f00",
        "name": "Asociación Cultural El Nexus",
        "sector": "Proyecto",
        "municipality": "Antigua",
        "province": "Las Palmas",
        "island": "Fuerteventura",
        "address": "Calle Los Abedules, 3; 35610, Antigua, Las Palmas",
        "phones": [
          "617 358 685"
        ],
        "emails": [
          "nexus.asociacion.fuerteventura@gmail.com"
        ],
        "url": ""
      },
      "geometry": {
        "type": "Point",
        "coordinates": [
          -13.864181,
          28.3947854
        ]
      }
    },
    {
      "type": "Feature",
      "properties": {
        "id": "fea218a9-5465-4c2d-ad36-ea2059595443",
        "name": "Club Deportivo Herbania",
        "sector": "Servicios",
        "municipality": "Puerto del Rosario",
        "province": "Las Palmas",
        "island": "Fuerteventura",
        "address": "Calle Almirante Lallemand, 32; 35600, Puerto del Rosario, Las Palmas",
        "phones": [
          "928 530 706"
        ],
        "emails": [
          "herbania@herbania.com"
        ],
        "url": ""
      },
      "geometry": {
        "type": "Point",
        "coordinates": [
          -13.8523054,
          28.5004194
        ]
      }
    },
    {
      "type": "Feature",
      "properties": {
        "id": "cbbd75aa-60dd-44cf-adbd-67e0d43ff315",
        "name": "Centro de Educación Infantil y Primaria Costa Calma",
        "sector": "Servicios",
        "municipality": "Pájara",
        "province": "Las Palmas",
        "island": "Fuerteventura",
        "address": "Calle Montaña Hendida, 2; 35627, Pájara, Las Palmas",
        "phones": [
          "928 455 069"
        ],
        "emails": [
          "35013672@gobiernodecanarias.org"
        ],
        "url": ""
      },
      "geometry": {
        "type": "Point",
        "coordinates": [
          -14.2273579,
          28.1660163
        ]
      }
    },
    {
      "type": "Feature",
      "properties": {
        "id": "f4be8ee2-0e29-47c6-a0f5-f2c21cfa9311",
        "name": "Centro de Educación Infantil y Primaria Morro Jable I",
        "sector": "Servicios",
        "municipality": "Pájara",
        "province": "Las Palmas",
        "island": "Fuerteventura",
        "address": "Calle Mascona, 40; 35625, Pájara, Las Palmas",
        "phones": [
          "676 24 27 83"
        ],
        "emails": [
          "35001025@gobiernodecanarias.org"
        ],
        "url": ""
      },
      "geometry": {
        "type": "Point",
        "coordinates": [
          -14.3514154,
          28.0529587
        ]
      }
    },
    {
      "type": "Feature",
      "properties": {
        "id": "807ab1d0-fac5-46d2-ba44-a2983c3e72f4",
        "name": "Centro de Educación Infantil y Primaria Pájara",
        "sector": "Servicios",
        "municipality": "Pájara",
        "province": "Las Palmas",
        "island": "Fuerteventura",
        "address": "Calle Pico la Pila, 30; 35628, Pájara, Las Palmas",
        "phones": [
          "928 478 626"
        ],
        "emails": [
          "35001049@gobiernodecanarias.org"
        ],
        "url": ""
      },
      "geometry": {
        "type": "Point",
        "coordinates": [
          -14.1081189,
          28.3508903
        ]
      }
    },
    {
      "type": "Feature",
      "properties": {
        "id": "30bfb55d-52b1-460c-a5fc-c9d32903c108",
        "name": "Centro Integrado de Formación Profesional Morro Jable",
        "sector": "Servicios",
        "municipality": "Pájara",
        "province": "Las Palmas",
        "island": "Fuerteventura",
        "address": "Calle Quevedo, 117; 35625, Pájara, Las Palmas",
        "phones": [
          "928 479 691"
        ],
        "emails": [
          "35016031@gobiernodecanarias.org"
        ],
        "url": ""
      },
      "geometry": {
        "type": "Point",
        "coordinates": [
          -14.3574562,
          28.0628967
        ]
      }
    },
    {
      "type": "Feature",
      "properties": {
        "id": "e4550105-2403-4d4a-8ca7-1bbfd6719702",
        "name": "Instituto de Educación Secundaria Jandía",
        "sector": "Servicios",
        "municipality": "Pájara",
        "province": "Las Palmas",
        "island": "Fuerteventura",
        "address": "Calle Quevedo, 119; 35625, Pájara, Las Palmas",
        "phones": [
          "928 478 523"
        ],
        "emails": [
          "35010221@gobiernodecanarias.org"
        ],
        "url": ""
      },
      "geometry": {
        "type": "Point",
        "coordinates": [
          -14.3584212,
          28.0644449
        ]
      }
    },
    {
      "type": "Feature",
      "properties": {
        "id": "80f72e71-7eaf-42a4-9484-e9a4d7f9d3b6",
        "name": "Escuela de Arte de Fuerteventura",
        "sector": "Servicios",
        "municipality": "Pájara",
        "province": "Las Palmas",
        "island": "Fuerteventura",
        "address": "Carretera Los Estancos, s/n (Antiguo Aeropuerto de Los Estancos, Apartado de Correos 148); 35612, Pájara, Las Palmas",
        "phones": [
          "928 577 871"
        ],
        "emails": [
          "35015619@gobiernodecanarias.org"
        ],
        "url": ""
      },
      "geometry": {
        "type": "Point",
        "coordinates": [
          -13.9122814,
          28.5275207
        ]
      }
    },
    {
      "type": "Feature",
      "properties": {
        "id": "bb7e2f37-ad41-44b2-91e8-b6e9b12033c9",
        "name": "Asociación Culturalmente Unidos 'CulturUni'",
        "sector": "Proyecto",
        "municipality": "Tuineje",
        "province": "Las Palmas",
        "island": "Fuerteventura",
        "address": "Lugar Tequital S/N; 35629, Tuineje, Las Palmas",
        "phones": [
          "600 374 406"
        ],
        "emails": [
          "asociacionculturalmenteunidos@gmail.com"
        ],
        "url": ""
      },
      "geometry": {
        "type": "Point",
        "coordinates": [
          -13.9881798,
          28.2732649
        ]
      }
    },
    {
      "type": "Feature",
      "properties": {
        "id": "8683173c-9454-42c6-ba4c-4a0c4421adc0",
        "name": "Fuerteventura Media S.L. | Fuerteventura Televisión y Noticias Fuerteventura",
        "sector": "Servicios",
        "municipality": "Puerto del Rosario",
        "province": "Las Palmas",
        "island": "Fuerteventura",
        "address": "Calle Juan Domínguez Peña, 8; 35600, Puerto del Rosario, Las Palmas",
        "phones": [
          "633 168 995"
        ],
        "emails": [
          "direccion@fuerteventuratelevision.com"
        ],
        "url": ""
      },
      "geometry": {
        "type": "Point",
        "coordinates": [
          -13.8572139,
          28.4992161
        ]
      }
    },
    {
      "type": "Feature",
      "properties": {
        "id": "67856983-0ec8-4214-87bd-762242f57fc5",
        "name": "Asociación Arena para la recuperación y equilibrio neurológico en armonía",
        "sector": "Servicios",
        "municipality": "Puerto del Rosario",
        "province": "Las Palmas",
        "island": "Fuerteventura",
        "address": "Calle Tenerife, 79; 35600, Puerto del Rosario, Las Palmas",
        "phones": [
          "632 123 393"
        ],
        "emails": [
          "claus33ftv@gmail.com"
        ],
        "url": ""
      },
      "geometry": {
        "type": "Point",
        "coordinates": [
          -13.8712889,
          28.5049719
        ]
      }
    },
    {
      "type": "Feature",
      "properties": {
        "id": "93da8336-1c0d-43fa-b947-3be6e20b6598",
        "name": "Centro de Educación Infantil y Primaria Tarajalejo",
        "sector": "Servicios",
        "municipality": "Tuineje",
        "province": "Las Palmas",
        "island": "Fuerteventura",
        "address": "Calle Cabrera Martín, s/n; 35629, Tuieneje, Las Palmas",
        "phones": [
          "928 578 482"
        ],
        "emails": [
          "35006001@gobiernodecanarias.org"
        ],
        "url": ""
      },
      "geometry": {
        "type": "Point",
        "coordinates": [
          -14.1156217,
          28.1926877
        ]
      }
    },
    {
      "type": "Feature",
      "properties": {
        "id": "e8289144-5d4c-48ca-8197-681932a80be1",
        "name": "Centro de Educación Infantil y Primaria Tuineje",
        "sector": "Servicios",
        "municipality": "Tuineje",
        "province": "Las Palmas",
        "island": "Fuerteventura",
        "address": "Calle La Quinta Baja s/n; 35629, Tuineje, Las Palmas",
        "phones": [
          "928 118 161"
        ],
        "emails": [
          "35009164@gobiernodecanarias.org"
        ],
        "url": ""
      },
      "geometry": {
        "type": "Point",
        "coordinates": [
          -14.0470392,
          28.3279252
        ]
      }
    },
    {
      "type": "Feature",
      "properties": {
        "id": "b469efac-d28d-4b55-8f1a-65f5140753d2",
        "name": "Asociación de Vecinos Por Corralejo-Avecor",
        "sector": "Servicios",
        "municipality": "La Oliva",
        "province": "Las Palmas",
        "island": "Fuerteventura",
        "address": "Calle Eusebio Carballo Estévez, nº12, 2ºC; 35660, La Oliva, Las Palmas",
        "phones": [
          "651 791 547"
        ],
        "emails": [
          "porcorralejo@gmail.com"
        ],
        "url": ""
      },
      "geometry": {
        "type": "Point",
        "coordinates": [
          -13.86995,
          28.73942
        ]
      }
    },
    {
      "type": "Feature",
      "properties": {
        "id": "e68b0cee-b1f8-449e-9e9b-b6df7cd26e99",
        "name": "Asociación musical \"Charanga a Contratempo\"",
        "sector": "Proyecto",
        "municipality": "Betancuria",
        "province": "Las Palmas",
        "island": "Fuerteventura",
        "address": "Lugar Ampuyenta 4ºC; 35637, Betancuria, Las Palmas",
        "phones": [
          "676 043 619"
        ],
        "emails": [
          "djsuarezramos@gmail.com"
        ],
        "url": ""
      },
      "geometry": {
        "type": "Point",
        "coordinates": [
          -13.9934506,
          28.4644479
        ]
      }
    },
    {
      "type": "Feature",
      "properties": {
        "id": "c55512dd-fc02-4209-a0d9-1a6f9c7b0ea6",
        "name": "Asociación de Senegaleses Unidos para La Mutualidad, La Inclusión y la Responsabilidad | ASUMIR",
        "sector": "Proyecto",
        "municipality": "Pájara",
        "province": "Las Palmas",
        "island": "Fuerteventura",
        "address": "Calle Entresalas, 38-A; 35627, Pájara, Las Palmas",
        "phones": [
          "641 652 560"
        ],
        "emails": [
          "papetallafall4@gmail.com"
        ],
        "url": ""
      },
      "geometry": {
        "type": "Point",
        "coordinates": [
          -14.2147155,
          28.1726225
        ]
      }
    },
    {
      "type": "Feature",
      "properties": {
        "id": "5a9ea4f1-eb19-45da-b68a-95a47334e7fc",
        "name": "Asociación de Ganaderos del Mal Nombre",
        "sector": "Servicios",
        "municipality": "Pájara",
        "province": "Las Palmas",
        "island": "Fuerteventura",
        "address": "Urbanización El Jable, 9A, J9,; 35625, Pájara, Las Palmas",
        "phones": [
          "690 807 233"
        ],
        "emails": [
          "andresacostacastillo1@gmail.com"
        ],
        "url": ""
      },
      "geometry": {
        "type": "Point",
        "coordinates": [
          -14.351552,
          28.0511096
        ]
      }
    },
    {
      "type": "Feature",
      "properties": {
        "id": "d5931da4-db36-48eb-be0a-8654d1bb2f4d",
        "name": "Asociación de Madres y Padres Bajo Montaña | CEIP Antoñito El Farero",
        "sector": "Servicios",
        "municipality": "La Oliva",
        "province": "Las Palmas",
        "island": "Fuerteventura",
        "address": "Avenida Juan Carlos I, 38; 35660, La Oliva, Las Palmas",
        "phones": [],
        "emails": [
          "ampaceipantonitoelfarero@gmail.com"
        ],
        "url": ""
      },
      "geometry": {
        "type": "Point",
        "coordinates": [
          -13.8744845,
          28.7320765
        ]
      }
    },
    {
      "type": "Feature",
      "properties": {
        "id": "abcacc34-5a62-4e02-86e0-519aad9d8c2c",
        "name": "Asociación de Familias Profesionales para la Atención a la Neurodiversidad Paso a Paso",
        "sector": "Proyecto",
        "municipality": "Pájara",
        "province": "Las Palmas",
        "island": "Fuerteventura",
        "address": "Calle Montaña Hendida nº 2; 35627, Pájara, Las Palmas",
        "phones": [
          "667 843 253"
        ],
        "emails": [
          "asociacionpasoapaso@asociacionpap.com"
        ],
        "url": ""
      },
      "geometry": {
        "type": "Point",
        "coordinates": [
          -14.1329365,
          28.2600384
        ]
      }
    },
    {
      "type": "Feature",
      "properties": {
        "id": "3e9573f8-7002-43ec-a13e-e0299d233b00",
        "name": "Asociación Cultural Espacio 1841",
        "sector": "Proyecto",
        "municipality": "Puerto del Rosario",
        "province": "Las Palmas",
        "island": "Fuerteventura",
        "address": "Calle Bachiller n.13; 35600, Puerto del Rosario, Las Palmas",
        "phones": [
          "684 217 517"
        ],
        "emails": [
          "asociacionespacio1841@gmail.com"
        ],
        "url": ""
      },
      "geometry": {
        "type": "Point",
        "coordinates": [
          -13.8647075,
          28.4997634
        ]
      }
    },
    {
      "type": "Feature",
      "properties": {
        "id": "4bb1f1e0-148e-4580-85bb-333e4a0d5998",
        "name": "Banda Municipal de Pájara",
        "sector": "Proyecto",
        "municipality": "Pájara",
        "province": "Las Palmas",
        "island": "Fuerteventura",
        "address": "Calle Mascona 32; 35625, Morro Jable, Las Palmas",
        "phones": [
          "661 73 1 437"
        ],
        "emails": [
          "bandamunicipaldepajara@hotmail.com"
        ],
        "url": ""
      },
      "geometry": {
        "type": "Point",
        "coordinates": [
          -14.3511589,
          28.0525763
        ]
      }
    },
    {
      "type": "Feature",
      "properties": {
        "id": "6ff7b689-a427-405b-a2a9-1e5b7b508beb",
        "name": "Centro de Educación Infantil y Primaria Pablo Neruda",
        "sector": "Servicios",
        "municipality": "Puerto del Rosario",
        "province": "Las Palmas",
        "island": "Fuerteventura",
        "address": "Calle Jacinto Benavente, 2; 35600, Puerto del Rosario, Las Palmas",
        "phones": [
          "928 478 621"
        ],
        "emails": [
          "35007908@gobiernodecanarias.org"
        ],
        "url": ""
      },
      "geometry": {
        "type": "Point",
        "coordinates": [
          -13.8714178,
          28.4406104
        ]
      }
    },
    {
      "type": "Feature",
      "properties": {
        "id": "516d9931-0ece-480c-86c0-6c2283d7b85a",
        "name": "Centro de Educación Infantil y Primaria Gumersindo Martell",
        "sector": "Servicios",
        "municipality": "Betancuria",
        "province": "Las Palmas",
        "island": "Fuerteventura",
        "address": "Calle Rey Abán, 2 (Valle de Santa Inés); 35637, Betancuria, Las Palmas",
        "phones": [
          "928 393 026"
        ],
        "emails": [
          "35006734@gobiernodecanarias.org"
        ],
        "url": ""
      },
      "geometry": {
        "type": "Point",
        "coordinates": [
          -14.0400751,
          28.4632941
        ]
      }
    },
    {
      "type": "Feature",
      "properties": {
        "id": "adadaa4b-795d-4b41-bffa-54283675c9cf",
        "name": "Instituto de Educación Secundaria La Oliva",
        "sector": "Servicios",
        "municipality": "La Oliva",
        "province": "Las Palmas",
        "island": "Fuerteventura",
        "address": "Plan parcial puerto escondido SN; 35640, La Oliva, La Palmas",
        "phones": [
          "928 211 781"
        ],
        "emails": [
          "35010452@gobiernodecanarias.org"
        ],
        "url": ""
      },
      "geometry": {
        "type": "Point",
        "coordinates": [
          -13.9267252,
          28.6100767
        ]
      }
    },
    {
      "type": "Feature",
      "properties": {
        "id": "7f1890a7-e9a3-4cf8-ba8f-fa5d2e45d717",
        "name": "Consejería Territorial de educación del Gobierno de Canarias en Fuerteventura",
        "sector": "Servicios",
        "municipality": "Puerto del Rosario",
        "province": "Las Palmas",
        "island": "Fuerteventura",
        "address": "Calle Alcaldes Mayores, 54-A; 35600, Puerto del Rosario, Las Palmas",
        "phones": [
          "928 303 517"
        ],
        "emails": [
          "dirinsfue.educacion@gobiernodecanarias.org"
        ],
        "url": ""
      },
      "geometry": {
        "type": "Point",
        "coordinates": [
          -13.8603845,
          28.5089923
        ]
      }
    },
    {
      "type": "Feature",
      "properties": {
        "id": "9fb708ec-5d9c-4d52-9cbe-cadb74b4b2f0",
        "name": "Asociación de Proyecto Locales en Casamance Ninki Nanka",
        "sector": "Proyecto",
        "municipality": "La Oliva",
        "province": "Las Palmas",
        "island": "Fuerteventura",
        "address": "Avenida Fuerteventura 31; 35660 Corralejo, Las Palmas",
        "phones": [
          "636 243 542"
        ],
        "emails": [
          "ninkinanka.bnk@gmail.com"
        ],
        "url": ""
      },
      "geometry": {
        "type": "Point",
        "coordinates": [
          -13.8581588,
          28.7268047
        ]
      }
    },
    {
      "type": "Feature",
      "properties": {
        "id": "25185c32-5c33-4761-94cd-93e323174ee0",
        "name": "Asociación de Productores Agroalimentarios de Fuerteventura | APAF",
        "sector": "Servicios",
        "municipality": "Antigua",
        "province": "Las Palmas",
        "island": "Fuerteventura",
        "address": "Calle Agua de Bueyes nº30; 35638, Antigua, Las Palmas",
        "phones": [
          "928 174 187"
        ],
        "emails": [
          "info@vidaloe.es"
        ],
        "url": ""
      },
      "geometry": {
        "type": "Point",
        "coordinates": [
          -14.0113674,
          28.377371
        ]
      }
    },
    {
      "type": "Feature",
      "properties": {
        "id": "014dba1a-775d-4b0d-8f1b-921f7f56864b",
        "name": "Asociación de Empresarios de Puerto del Rosario",
        "sector": "Servicios",
        "municipality": "Puerto del Rosario",
        "province": "Las Palmas",
        "island": "Fuerteventura",
        "address": "Calle García Escámez nº28  Local A; 35600, Puerto Del Rosario, Las Palmas",
        "phones": [
          "618 410 487"
        ],
        "emails": [
          "asociacionpuertodelrosario@gmail.com"
        ],
        "url": ""
      },
      "geometry": {
        "type": "Point",
        "coordinates": [
          -13.8608837,
          28.4960284
        ]
      }
    },
    {
      "type": "Feature",
      "properties": {
        "id": "6b2770b6-9ff0-4b68-9ba6-261a30df5a13",
        "name": "ONG Clean Ocean Project",
        "sector": "Servicios",
        "municipality": "La Oliva",
        "province": "Las Palmas",
        "island": "Fuerteventura",
        "address": "Lugar Los quemados s/n; 35650, La Oliva, Las Palmas",
        "phones": [
          "669 797 264"
        ],
        "emails": [
          "info@cleanoceanproject.org"
        ],
        "url": ""
      },
      "geometry": {
        "type": "Point",
        "coordinates": [
          -13.9332123,
          28.6778888
        ]
      }
    },
    {
      "type": "Feature",
      "properties": {
        "id": "fdb36bf8-111e-48f0-8577-b758a48e3e98",
        "name": "Biblioteca Municipal de Puerto del Rosario",
        "sector": "Servicios",
        "municipality": "Puerto del Rosario",
        "province": "Las Palmas",
        "island": "Fuerteventura",
        "address": "Calle Ramiro de Maeztu, 1; 35600, Puerto del Rosario, Las Palmas",
        "phones": [
          "928 859 440"
        ],
        "emails": [
          "bibliotecamunicipal89@gmail.com"
        ],
        "url": ""
      },
      "geometry": {
        "type": "Point",
        "coordinates": [
          -13.8585136,
          28.5011798
        ]
      }
    },
    {
      "type": "Feature",
      "properties": {
        "id": "7a3f9faa-526f-4a01-b459-81ad19f73c5b",
        "name": "Club San Crispín",
        "sector": "Servicios",
        "municipality": "Antigua",
        "province": "Las Palmas",
        "island": "Fuerteventura",
        "address": "Lugar Trasera Municipal del Pabellón de Antigua; 35638, Antigua, Las Palmas",
        "phones": [
          "663 326 014"
        ],
        "emails": [
          "clubsancrispin@gmail.com"
        ],
        "url": ""
      },
      "geometry": {
        "type": "Point",
        "coordinates": [
          -14.0110599,
          28.415292
        ]
      }
    },
    {
      "type": "Feature",
      "properties": {
        "id": "44658f84-8d4e-4402-b284-7025e3458a78",
        "name": "Asociación Juvenil Los Alisios del Sur",
        "sector": "Servicios",
        "municipality": "La Oliva",
        "province": "Las Palmas",
        "island": "Fuerteventura",
        "address": "Calle Coronel Gonzalez Yerro,12 izq, (MerKaDoña Lajares); 35650, La Oliva, Las Palmas",
        "phones": [
          "678 970 559"
        ],
        "emails": [
          "almendro38638@gmail.com"
        ],
        "url": ""
      },
      "geometry": {
        "type": "Point",
        "coordinates": [
          -13.9397455,
          28.6786781
        ]
      }
    },
    {
      "type": "Feature",
      "properties": {
        "id": "4f826fcf-5040-482d-b9c3-d64194df1253",
        "name": "Asociación Sociocultural y Deportiva Esencia Fuerteventura",
        "sector": "Servicios",
        "municipality": "Tuineje",
        "province": "Las Palmas",
        "island": "Fuerteventura",
        "address": "Polígono Industrial El cuchillete, 5; 35629, Tuineje, Las Palmas",
        "phones": [
          "606 507 719"
        ],
        "emails": [
          "asociacionesenciafuerteventura@gmail.com"
        ],
        "url": ""
      },
      "geometry": {
        "type": "Point",
        "coordinates": [
          -14.0264176,
          28.2532046
        ]
      }
    },
    {
      "type": "Feature",
      "properties": {
        "id": "26cf04fa-c2b3-4b80-8d2d-1f7c084ab3bf",
        "name": "Centro de Educación Infantil y Primaria Casillas del Ángel",
        "sector": "Servicios",
        "municipality": "Puerto del Rosario",
        "province": "Las Palmas",
        "island": "Fuerteventura",
        "address": "Barrio Casillas del Ángel, s/n; 35611, Puerto del Rosario, Las Palmas",
        "phones": [
          "928 655 997"
        ],
        "emails": [
          "35005596@gobiernodecanarias.org"
        ],
        "url": ""
      },
      "geometry": {
        "type": "Point",
        "coordinates": [
          -13.96585104,
          28.49175228
        ]
      }
    },
    {
      "type": "Feature",
      "properties": {
        "id": "aa83dd69-cd3e-4479-9e46-a96654044443",
        "name": "Punto de Encuentro Familiar, Programa La Fortaleza",
        "sector": "Programa",
        "municipality": "Puerto del Rosario",
        "province": "Las Palmas",
        "island": "Fuerteventura",
        "address": "Calle Barranco Pilón, 25, Local A (Edificio Orión); 35600, Puerto del Rosario, Las Palmas",
        "phones": [
          "659 64 44 13"
        ],
        "emails": [
          "puntofuerteventura@familiascanarias.com"
        ],
        "url": ""
      },
      "geometry": {
        "type": "Point",
        "coordinates": [
          -13.8612539,
          28.5004486
        ]
      }
    },
    {
      "type": "Feature",
      "properties": {
        "id": "a32c3dd6-baf7-4fb4-af2e-2584fbaeaff0",
        "name": "Asociación de Voluntarios de Ayuda a la Naturaleza de Fuerteventura.",
        "sector": "Servicios",
        "municipality": "Puerto del Rosario",
        "province": "Las Palmas",
        "island": "Fuerteventura",
        "address": "Calle Fotógrafo Herrera s/n; 35600, Puerto del Rosario, Las Palmas",
        "phones": [
          "660 766 319"
        ],
        "emails": [
          "avanfuer@gmail.com"
        ],
        "url": ""
      },
      "geometry": {
        "type": "Point",
        "coordinates": [
          -13.8525488,
          28.5035493
        ]
      }
    },
    {
      "type": "Feature",
      "properties": {
        "id": "813b4ee5-0676-477f-b301-a3caf790702c",
        "name": "Asociación Social Sahara Fuerte",
        "sector": "Servicios",
        "municipality": "Puerto del Rosario",
        "province": "Las Palmas",
        "island": "Fuerteventura",
        "address": "Camino Del Sordo, 102; 35613, Puerto del Rosario, Las Palmas",
        "phones": [
          "638 088 963"
        ],
        "emails": [
          "juambicabrera@gmail.com"
        ],
        "url": ""
      },
      "geometry": {
        "type": "Point",
        "coordinates": [
          -13.9403579,
          28.5302781
        ]
      }
    },
    {
      "type": "Feature",
      "properties": {
        "id": "79edb562-6a6d-4217-986e-2e3d7b59aefb",
        "name": "Asociación Sociocultural de Mujeres Mauritanas DIMBE",
        "sector": "Servicios",
        "municipality": "La Oliva",
        "province": "Las Palmas",
        "island": "Fuerteventura",
        "address": "Calle La Garepa, 18; 35640, La Oliva, Las Palmas",
        "phones": [
          "662 408 655"
        ],
        "emails": [
          "dimbefuerteventura@gmail.com"
        ],
        "url": ""
      },
      "geometry": {
        "type": "Point",
        "coordinates": [
          -13.9093765,
          28.6234096
        ]
      }
    },
    {
      "type": "Feature",
      "properties": {
        "id": "f4e9acc6-44d1-4ec7-a801-800b5e933e2e",
        "name": "Escuela Insular de Música de Fuerteventura",
        "sector": "Programa",
        "municipality": "Puerto del Rosario",
        "province": "Las Palmas",
        "island": "Fuerteventura",
        "address": "Plaza del del Centenario del Cabildo de Fuerteventura, 1; 35600, Puerto del Rosario, Las Palmas",
        "phones": [
          "928 862 497"
        ],
        "emails": [
          "musica@cabildofuer.es"
        ],
        "url": ""
      },
      "geometry": {
        "type": "Point",
        "coordinates": [
          -13.8606368,
          28.4985885
        ]
      }
    },
    {
      "type": "Feature",
      "properties": {
        "id": "caa3213c-95b4-4876-bd94-866833dc5d42",
        "name": "Colegio de Educación Infantil y Primaria Tindaya",
        "sector": "Servicios",
        "municipality": "La Oliva",
        "province": "Las Palmas",
        "island": "Fuerteventura",
        "address": "Calle Virgen de la Caridad, s/n; 35649, La Oliva, Las Palmas",
        "phones": [
          "928 303 137"
        ],
        "emails": [
          "35005195@gobiernodecanarias.org"
        ],
        "url": ""
      },
      "geometry": {
        "type": "Point",
        "coordinates": [
          -13.9897491,
          28.591413
        ]
      }
    },
    {
      "type": "Feature",
      "properties": {
        "id": "f87c0468-dba1-4134-a4f9-9f61e159b642",
        "name": "Club Deportivo Saque y Club Deportivo Saque y Volea",
        "sector": "Servicios",
        "municipality": "La Oliva",
        "province": "Las Palmas",
        "island": "Fuerteventura",
        "address": "Calle La Orilla, 25; 35640, La Oliva, Las Palmas",
        "phones": [
          "679 401 225"
        ],
        "emails": [
          "clubtenissaquevolea@gmail.com"
        ],
        "url": ""
      },
      "geometry": {
        "type": "Point",
        "coordinates": [
          -13.9335491,
          28.6148206
        ]
      }
    },
    {
      "type": "Feature",
      "properties": {
        "id": "394087ef-2cf5-4657-9f73-b618eef6eea7",
        "name": "Asociación Isla Maxorata Club Deportivo Voleibol",
        "sector": "Servicios",
        "municipality": "La Oliva",
        "province": "Las Palmas",
        "island": "Fuerteventura",
        "address": "Calle Morro francisco, 4;  35660, La Oliva, Las Palmas",
        "phones": [
          "639 078 563"
        ],
        "emails": [
          "cvislamaxorata@gmail.com"
        ],
        "url": ""
      },
      "geometry": {
        "type": "Point",
        "coordinates": [
          -13.8825919,
          28.7226652
        ]
      }
    },
    {
      "type": "Feature",
      "properties": {
        "id": "497a2a5f-31ad-4604-b222-92b601f9e547",
        "name": "Escuela Insular de Porteros de Fútbol Isla de Fuerteventura",
        "sector": "Servicios",
        "municipality": "Puerto del Rosario",
        "province": "Las Palmas",
        "island": "Fuerteventura",
        "address": "Estudio Municipal de Los Pozos; Puerto del Rosario, Las Palmas",
        "phones": [
          "635 305 826"
        ],
        "emails": [
          "victorvinolyedp@gmail.com"
        ],
        "url": ""
      },
      "geometry": {
        "type": "Point",
        "coordinates": [
          -13.8665066,
          28.4918354
        ]
      }
    },
    {
      "type": "Feature",
      "properties": {
        "id": "729747c6-8aad-456a-959c-f4f660112f79",
        "name": "Asociación de Fuerteventura de Familias con Alzheimer y Otras Demencias | AFFA",
        "sector": "Servicios",
        "municipality": "Puerto del Rosario",
        "province": "Las Palmas",
        "island": "Fuerteventura",
        "address": "Calle Calle Aragón, s/n; 35600, Puerto del Rosario, Las Palmas",
        "phones": [
          "626 010 199"
        ],
        "emails": [
          "affa@alzheimerfuerteventura.org"
        ],
        "url": ""
      },
      "geometry": {
        "type": "Point",
        "coordinates": [
          -13.8718679,
          28.5072168
        ]
      }
    },
    {
      "type": "Feature",
      "properties": {
        "id": "aa2b12b3-3d01-49a6-b735-62c588526b4a",
        "name": "Centro de Educación Infantil y Primaria de Tefía",
        "sector": "Servicios",
        "municipality": "Puerto del Rosario",
        "province": "Las Palmas",
        "island": "Fuerteventura",
        "address": "Camino de Tablero del Morrito  nº 1; 35600, Puerto del Rosario, Las Palmas",
        "phones": [
          "928 655 995"
        ],
        "emails": [
          "35005811@gobiernodecanarias.org"
        ],
        "url": ""
      },
      "geometry": {
        "type": "Point",
        "coordinates": [
          -14.662797,
          27.9453896
        ]
      }
    },
    {
      "type": "Feature",
      "properties": {
        "id": "bde1c33e-8c8a-4925-b7a3-fe69bbb41220",
        "name": "Centro de Educación Infantil y Primaria María Castrillo García",
        "sector": "",
        "municipality": "La Oliva",
        "province": "Las Palmas",
        "island": "Fuerteventura",
        "address": "Avenida Juan Carlos I, 30; 35660, La Oliva, Las Palmas",
        "phones": [
          "928 599 272"
        ],
        "emails": [
          "35009437@gobiernodecanarias.org"
        ],
        "url": ""
      },
      "geometry": {
        "type": "Point",
        "coordinates": [
          -13.8728764,
          28.7364389
        ]
      }
    },
    {
      "type": "Feature",
      "properties": {
        "id": "8571af95-28ff-41e2-80f4-72b16f24c07d",
        "name": "Asociación Cultural Agrupación Folclórica Maxorata-Puerto del Rosario",
        "sector": "Proyecto",
        "municipality": "Puerto del Rosario",
        "province": "Las Palmas",
        "island": "Fuerteventura",
        "address": "Calle Cervantes, nº 87; 35600, Puerto del Rosario, Las Palmas",
        "phones": [
          "690 215 424"
        ],
        "emails": [
          "afmaxorata08@gmail.com"
        ],
        "url": ""
      },
      "geometry": {
        "type": "Point",
        "coordinates": [
          -13.8688559,
          28.5001723
        ]
      }
    },
    {
      "type": "Feature",
      "properties": {
        "id": "28f3364e-9251-4365-80c2-3d6f4455e413",
        "name": "Asociación Play and Train",
        "sector": "Servicios",
        "municipality": "Puerto del Rosario",
        "province": "Las Palmas",
        "island": "Fuerteventura",
        "address": "Carretera Los Estancos;  Antiguo Aeropuerto de los estancos s/n , Despacho 104 Parque Tecnológico de Fuerteventura; 35612, Puerto del Rosario, Las Palmas",
        "phones": [
          "686 660 428"
        ],
        "emails": [
          "fuerteventura@playandtrain.org"
        ],
        "url": ""
      },
      "geometry": {
        "type": "Point",
        "coordinates": [
          -14.662797,
          27.9453896
        ]
      }
    },
    {
      "type": "Feature",
      "properties": {
        "id": "9cb86d0f-1296-47c0-8437-1b195a0fd307",
        "name": "Asociación Parranda la Sebada",
        "sector": "Proyecto",
        "municipality": "Pájara",
        "province": "Las Palmas",
        "island": "Fuerteventura",
        "address": "Urb. Vista Azul nº5 ; 35625, Pájara, Las Palmas",
        "phones": [
          "636 231 863"
        ],
        "emails": [
          "parrandalasebada@gmail.com"
        ],
        "url": ""
      },
      "geometry": {
        "type": "Point",
        "coordinates": [
          -14.3384616,
          28.0711126
        ]
      }
    },
    {
      "type": "Feature",
      "properties": {
        "id": "b12bce5c-baff-4c5f-892d-ffb1706cd49b",
        "name": "Convive Fundación Cepaim",
        "sector": "Proyecto",
        "municipality": "Puerto del Rosario",
        "province": "Las Palmas",
        "island": "Fuerteventura",
        "address": "Calle Séneca 12; 35600, Puerto del Rosario, Las Palmas",
        "phones": [
          "666 001 777"
        ],
        "emails": [
          "fuerteventura@cepaim.org"
        ],
        "url": ""
      },
      "geometry": {
        "type": "Point",
        "coordinates": [
          -13.8633362,
          28.5023386
        ]
      }
    },
    {
      "type": "Feature",
      "properties": {
        "id": "5af6d957-9e60-4301-b8d2-5273bd00f73d",
        "name": "Asociación de Vecinos El Pajerito de los Molinos",
        "sector": "Servicios",
        "municipality": "Puerto del Rosario",
        "province": "Las Palmas",
        "island": "Fuerteventura",
        "address": "Lugar Los Molinos, nº 35; 35611, Puerto del Rosario, Las Palmas",
        "phones": [
          "650 978 514"
        ],
        "emails": [
          "losmolinosasociacionvecinos@gmail.com"
        ],
        "url": ""
      },
      "geometry": {
        "type": "Point",
        "coordinates": [
          -14.662797,
          27.9453896
        ]
      }
    },
    {
      "type": "Feature",
      "properties": {
        "id": "3d1a795d-e3d2-4848-94d5-cd96dcf05987",
        "name": "Instituto de Educación Secundaria Corralejo",
        "sector": "Servicios",
        "municipality": "La Oliva",
        "province": "Las Palmas",
        "island": "Fuerteventura",
        "address": "Calle Francisco Navarro Artiles, 14; 35660, La Oliva, Las Palmas",
        "phones": [
          "928 325 337"
        ],
        "emails": [
          "35010476@gobiernodecanarias.org"
        ],
        "url": ""
      },
      "geometry": {
        "type": "Point",
        "coordinates": [
          -13.8740443,
          28.7375986
        ]
      }
    },
    {
      "type": "Feature",
      "properties": {
        "id": "3e6092c6-86b8-4474-96f6-0091f9e566f1",
        "name": "Asociación de Artesanos Creativos de Fuerteventura",
        "sector": "",
        "municipality": "Betancuria",
        "province": "Las Palmas",
        "island": "Fuerteventura",
        "address": "Calle Roberto Roldán 17; 35637, Betancuria, Las Palmas",
        "phones": [
          "695 690 822"
        ],
        "emails": [
          "artesanoscreativosftv@gmail.com"
        ],
        "url": ""
      },
      "geometry": {
        "type": "Point",
        "coordinates": [
          -14.0564317,
          28.4245766
        ]
      }
    },
    {
      "type": "Feature",
      "properties": {
        "id": "86b07151-c373-4e77-a91d-4f366fbd3b3b",
        "name": "Asociación  cultural y deportiva Tepuy",
        "sector": "Proyecto",
        "municipality": "Pájara",
        "province": "Las Palmas",
        "island": "Fuerteventura",
        "address": "Calle Jahn Reisen No. 33, pta. 1B; 35627, Pájara, Las Palmas",
        "phones": [
          "684 011 787"
        ],
        "emails": [
          "tepuy.fuerteventura@gmail.com"
        ],
        "url": ""
      },
      "geometry": {
        "type": "Point",
        "coordinates": [
          -14.2341278,
          28.1545558
        ]
      }
    },
    {
      "type": "Feature",
      "properties": {
        "id": "f671b040-a85c-4695-a062-4782ad65f4e1",
        "name": "Asociación Cultural Más Ruines que Caín",
        "sector": "Proyecto",
        "municipality": "Tuineje",
        "province": "Las Palmas",
        "island": "Fuerteventura",
        "address": "Calle Eustaquio Gopar, Nº 19 (Centro Cultural Tuineje); 35629, Tuineje, Las Palmas",
        "phones": [
          "650 865 824"
        ],
        "emails": [
          "masruinesquecain10@gmail.com"
        ],
        "url": ""
      },
      "geometry": {
        "type": "Point",
        "coordinates": [
          -14.0471764,
          28.3248532
        ]
      }
    },
    {
      "type": "Feature",
      "properties": {
        "id": "f9c5f861-b5d3-4236-9109-d5cb98c7df4a",
        "name": "Centro de Educación Infantil y Primaria Tesegueraje",
        "sector": "Servicios",
        "municipality": "Tuineje",
        "province": "Las Palmas",
        "island": "Fuerteventura",
        "address": "Carretera General de Tesegueraje, s/nM; 35629, Tuineje, Las Palmas",
        "phones": [
          "928 303 103"
        ],
        "emails": [
          "35006011@gobiernodecanarias.org"
        ],
        "url": ""
      },
      "geometry": {
        "type": "Point",
        "coordinates": [
          -14.0471443,
          28.3258026
        ]
      }
    },
    {
      "type": "Feature",
      "properties": {
        "id": "79dc0402-5e05-4685-a112-96169f1b9092",
        "name": "Asociación de Italianos Amigos de Fuerteventura",
        "sector": "Servicios",
        "municipality": "Puerto del Rosario",
        "province": "Las Palmas",
        "island": "Fuerteventura",
        "address": "Calle Secundino Alonso, 73; 35600, Puereto del Rosario, Las Palmas",
        "phones": [
          "617 726 620"
        ],
        "emails": [
          "info@adiaf.es"
        ],
        "url": ""
      },
      "geometry": {
        "type": "Point",
        "coordinates": [
          -13.8632162,
          28.494403
        ]
      }
    },
    {
      "type": "Feature",
      "properties": {
        "id": "27da211d-8084-467c-b1eb-daee165de46a",
        "name": "Asociación Senegalesa en Fuerteventura",
        "sector": "Servicios",
        "municipality": "Puerto del Rosario",
        "province": "Las Palmas",
        "island": "Fuerteventura",
        "address": "Calle Tabaiba, 44-A; 35600, Puerto del Rosario, Las Palmas",
        "phones": [
          "645 293 377"
        ],
        "emails": [
          "asefuert@gmail.com"
        ],
        "url": ""
      },
      "geometry": {
        "type": "Point",
        "coordinates": [
          -13.8714338,
          28.470408
        ]
      }
    },
    {
      "type": "Feature",
      "properties": {
        "id": "af3f9af8-5acc-492f-b84d-123faca4384e",
        "name": "Asociación de madres y padres Buenaventura | CEIP del Castillo",
        "sector": "Servicios",
        "municipality": "Antigua",
        "province": "Las Palmas",
        "island": "Fuerteventura",
        "address": "Avenida Ángel Jove s/n;  35610, Caleta de Fuste, Las Palmas",
        "phones": [
          "644 666 424"
        ],
        "emails": [
          "ampabuenaventuracastillo@gmail.com"
        ],
        "url": ""
      },
      "geometry": {
        "type": "Point",
        "coordinates": [
          -13.8722871,
          28.3922525
        ]
      }
    },
    {
      "type": "Feature",
      "properties": {
        "id": "4e97923a-7d1e-420d-97a8-521b72c68ff4",
        "name": "Agrupación Folklórica Tabaibare",
        "sector": "Proyecto",
        "municipality": "La Oliva",
        "province": "Las Palmas",
        "island": "Fuerteventura",
        "address": "Calle Folklore, 10; 35649, La Oliva, Las Palmas",
        "phones": [
          "615 068 755"
        ],
        "emails": [
          "tababaire@yahoo.es"
        ],
        "url": ""
      },
      "geometry": {
        "type": "Point",
        "coordinates": [
          -13.9161442,
          28.6106252
        ]
      }
    },
    {
      "type": "Feature",
      "properties": {
        "id": "0ea09c1d-8ebd-4c8e-a5d4-3e3d77d4b083",
        "name": "Asociación Campistas de Fuerteventura Los Leñadores",
        "sector": "Proyecto",
        "municipality": "Puerto del Rosario",
        "province": "Las Palmas",
        "island": "Fuerteventura",
        "address": "Calle Marisco, 17; 35600, Puerto del Rosario, Las Palmas",
        "phones": [
          "613 523 353"
        ],
        "emails": [
          "campistasdefuerteventura@gmail.com"
        ],
        "url": ""
      },
      "geometry": {
        "type": "Point",
        "coordinates": [
          -13.8424805,
          28.5164983
        ]
      }
    },
    {
      "type": "Feature",
      "properties": {
        "id": "19339619-2af2-4b90-a13b-cb3ed43ba393",
        "name": "Centro de Mayores de Morro Jable (Ayuntamiento de Pájara)",
        "sector": "Servicios",
        "municipality": "Pájara",
        "province": "Las Palmas",
        "island": "Fuerteventura",
        "address": "Calle Mascona, s/n; 35625, Pájara, Las Palmas",
        "phones": [
          "629 204 170"
        ],
        "emails": [
          "centromayoresmorrojable@pajara.es"
        ],
        "url": ""
      },
      "geometry": {
        "type": "Point",
        "coordinates": [
          -14.3508646,
          28.0518868
        ]
      }
    },
    {
      "type": "Feature",
      "properties": {
        "id": "54967958-f7e3-488e-93e5-da5802f7ddfd",
        "name": "Asociación de Emprendedoras y Empresarias Savia Canarias",
        "sector": "Servicios",
        "municipality": "Puerto del Rosario",
        "province": "Las Palmas",
        "island": "Fuerteventura",
        "address": "Calle La Pesca, 34; 35600, Puerto del Rosario, Las Palmas",
        "phones": [],
        "emails": [
          "hola@saviacanarias.com"
        ],
        "url": ""
      },
      "geometry": {
        "type": "Point",
        "coordinates": [
          -13.8485874,
          28.5052776
        ]
      }
    },
    {
      "type": "Feature",
      "properties": {
        "id": "dae49d82-11f1-4f34-b04a-bd5113fcacc9",
        "name": "Colegio de Educación Infantil y Primaria Villaverde",
        "sector": "Servicios",
        "municipality": "La Oliva",
        "province": "Las Palmas",
        "island": "Fuerteventura",
        "address": "Calle del Centro, 125; 35640, La Oliva, Las Palmas.",
        "phones": [
          "928 868 642"
        ],
        "emails": [
          "35001013@gobiernodecanarias.org"
        ],
        "url": ""
      },
      "geometry": {
        "type": "Point",
        "coordinates": [
          -13.9030981,
          28.6329272
        ]
      }
    },
    {
      "type": "Feature",
      "properties": {
        "id": "6ff6ab61-0fbc-411c-848b-cf6901b66776",
        "name": "Asociación de la Pequeña y Mediana Empresa de Tuineje",
        "sector": "Proyecto",
        "municipality": "Tuineje",
        "province": "Las Palmas",
        "island": "Fuerteventura",
        "address": "Calle Maxorata, 1; 35620,  Gran Tarajal, Tuineje",
        "phones": [
          "617 757 276"
        ],
        "emails": [
          "info.asociacionlagavia@gmail.com"
        ],
        "url": ""
      },
      "geometry": {
        "type": "Point",
        "coordinates": [
          -14.0223899,
          28.2105179
        ]
      }
    },
    {
      "type": "Feature",
      "properties": {
        "id": "15ff6f19-3140-40fd-a3b9-afe2280ec93f",
        "name": "Centro de Educación Infantil y Primaria Cristóbal García Blairzy",
        "sector": "Servicios",
        "municipality": "Tuineje",
        "province": "Las Palmas",
        "island": "Fuerteventura",
        "address": "Calle León y Castillo, 2, 35620, Tuineje, Las Palmas",
        "phones": [
          "928 599 131"
        ],
        "emails": [
          "35004622@gobiernodecanarias.org"
        ],
        "url": ""
      },
      "geometry": {
        "type": "Point",
        "coordinates": [
          -14.0475414,
          28.3233315
        ]
      }
    },
    {
      "type": "Feature",
      "properties": {
        "id": "c21ee6fb-768e-47c4-b67c-d5f1a6b80283",
        "name": "Asociación de Personas con Discapacidad Visual y Auditiva",
        "sector": "Servicios",
        "municipality": "Puerto del Rosario",
        "province": "Las Palmas",
        "island": "Fuerteventura",
        "address": "Calle Virgen Del Rosario,13; 35600, Puerto Del Rosario, Las Palmas",
        "phones": [
          "616 827 333"
        ],
        "emails": [
          "adiviafuerteventura@gmail.com"
        ],
        "url": ""
      },
      "geometry": {
        "type": "Point",
        "coordinates": [
          -13.8612152,
          28.4988024
        ]
      }
    },
    {
      "type": "Feature",
      "properties": {
        "id": "968d5c75-b3a1-4b99-b045-2cbf93d247d8",
        "name": "Asociación Española Contra el Cáncer",
        "sector": "Servicios",
        "municipality": "Puerto del Rosario",
        "province": "Las Palmas",
        "island": "Fuerteventura",
        "address": "Calle Luis Vives, 6; 35600, Puerto del Rosario , Las Palmas",
        "phones": [
          "900 100 036"
        ],
        "emails": [
          "fuerteventura@contraelcancer.es"
        ],
        "url": ""
      },
      "geometry": {
        "type": "Point",
        "coordinates": [
          -13.8591469,
          28.501205
        ]
      }
    },
    {
      "type": "Feature",
      "properties": {
        "id": "2d601386-eed0-411e-a55f-9ece9127fae3",
        "name": "Asociación de Vecinos El Pino (Puerto Lajas)",
        "sector": "Proyecto",
        "municipality": "Puerto del Rosario",
        "province": "Las Palmas",
        "island": "Fuerteventura",
        "address": "Calle  Corrillos, 7 (Centro Cultural de Puerto Lajas); 35612, Puerto del Rosario, Las Palmas",
        "phones": [
          "696 657 152"
        ],
        "emails": [
          "aavvpuertolajas@gmail.com"
        ],
        "url": ""
      },
      "geometry": {
        "type": "Point",
        "coordinates": [
          -13.8556543,
          28.4958578
        ]
      }
    },
    {
      "type": "Feature",
      "properties": {
        "id": "92865272-e95b-486e-b53c-0f6738865c9f",
        "name": "Parranda Juan Peña Cerrés",
        "sector": "Servicios",
        "municipality": "Puerto del Rosario",
        "province": "Las Palmas",
        "island": "Fuerteventura",
        "address": "Calle Franchy y Roca, 42; 35600, Puerto del Rosario, Las Palmas",
        "phones": [
          "617 534 168"
        ],
        "emails": [
          "mjespinel66@gmail.com"
        ],
        "url": ""
      },
      "geometry": {
        "type": "Point",
        "coordinates": [
          -13.8556543,
          28.4958578
        ]
      }
    },
    {
      "type": "Feature",
      "properties": {
        "id": "b7c112cf-a8e8-4933-923a-8626172baf9a",
        "name": "Asociación de Abogados Prodefensa de los Animales",
        "sector": "Servicios",
        "municipality": "Antigua",
        "province": "Las Palmas",
        "island": "Fuerteventura",
        "address": "Calle Alcalde Francisco Berriel 3, 1º; 35610, Antigua, Las Palmas",
        "phones": [
          "--"
        ],
        "emails": [
          "--"
        ],
        "url": ""
      },
      "geometry": {
        "type": "Point",
        "coordinates": [
          -14.0129302,
          28.4178521
        ]
      }
    },
    {
      "type": "Feature",
      "properties": {
        "id": "380c8bf3-7de3-465f-b6af-cd7331556d53",
        "name": "Asociación Cultural y Deportiva Batucada Sunfest Fuerteventura",
        "sector": "Servicios",
        "municipality": "Puerto del Rosario",
        "province": "Las Palmas",
        "island": "Fuerteventura",
        "address": "Calle Jacinto Benavente 94-B; 35600, Puerto del Rosario, Las Palmas",
        "phones": [
          "634 487 120"
        ],
        "emails": [
          "batucadasunfest@gmail.com"
        ],
        "url": ""
      },
      "geometry": {
        "type": "Point",
        "coordinates": [
          -13.8712421,
          28.5086686
        ]
      }
    },
    {
      "type": "Feature",
      "properties": {
        "id": "fd1bd9b5-1dc6-4b8a-8a1f-d42b77db74f4",
        "name": "Asociación de Pequeños y Medianos Empresarios del Municipio de Pájara | ALTABA",
        "sector": "Servicios",
        "municipality": "Pájara",
        "province": "Las Palmas",
        "island": "Fuerteventura",
        "address": "Avda. del Saladar, s/n (Centro Comercial Cosmo, local nº 151-bajo); 35.627, Pájara, Las Palmas",
        "phones": [
          "928 048 518 | 643 559 162"
        ],
        "emails": [
          "asociacionaltabadepajara@gmail.com"
        ],
        "url": ""
      },
      "geometry": {
        "type": "Point",
        "coordinates": [
          -14.3348473,
          28.0487399
        ]
      }
    },
    {
      "type": "Feature",
      "properties": {
        "id": "2dc5f4e3-f578-4777-abf5-9b5d6f224838",
        "name": "Asociación de Jóvenes Artistas Independientes | AJAI",
        "sector": "Proyecto",
        "municipality": "Puerto del Rosario",
        "province": "Las Palmas",
        "island": "Fuerteventura",
        "address": "Calle Don Quijote, 49; 35600, Puerto del Rosario, Las Palmas",
        "phones": [
          "691 707 377"
        ],
        "emails": [
          "jovenesartistasindependientes@gmail.com"
        ],
        "url": ""
      },
      "geometry": {
        "type": "Point",
        "coordinates": [
          -13.8663201,
          28.498982
        ]
      }
    },
    {
      "type": "Feature",
      "properties": {
        "id": "07ef9781-e2c6-4f3a-a167-b5dc2cad9ef5",
        "name": "Asociación Medioambiental Limpiaventura",
        "sector": "Proyecto",
        "municipality": "La Oliva",
        "province": "Las Palmas",
        "island": "Fuerteventura",
        "address": "Calle Poril 24, 35660, La Oliva , Las Palmas",
        "phones": [
          "610 013 424"
        ],
        "emails": [
          "info@limpiaventura.org"
        ],
        "url": ""
      },
      "geometry": {
        "type": "Point",
        "coordinates": [
          -13.8680591,
          28.7420782
        ]
      }
    },
    {
      "type": "Feature",
      "properties": {
        "id": "b1fff132-ad51-4960-9553-e41c73960c6d",
        "name": "Asociación Cultural de Capoeira y Deporte Brasil y España | ACCADEBE",
        "sector": "Proyecto",
        "municipality": "Tuineje",
        "province": "Las Palmas",
        "island": "Fuerteventura",
        "address": "Calle Vigan, 1; 35620, Tuineje, Las Palmas",
        "phones": [
          "639 063 110"
        ],
        "emails": [
          "accadebe@gmail.com"
        ],
        "url": ""
      },
      "geometry": {
        "type": "Point",
        "coordinates": [
          -14.020798,
          28.2134778
        ]
      }
    },
    {
      "type": "Feature",
      "properties": {
        "id": "bb4e3f5d-7810-4571-8a6d-fc9848435c2c",
        "name": "Club Deportivo Mahokayak",
        "sector": "Proyecto",
        "municipality": "Antigua",
        "province": "Las Palmas",
        "island": "Fuerteventura",
        "address": "Calle Casilla de Morales, 1; 35638, Antigua, las Palmas",
        "phones": [
          "618 644 898"
        ],
        "emails": [
          "mahokayakftv@gmail.com"
        ],
        "url": ""
      },
      "geometry": {
        "type": "Point",
        "coordinates": [
          -14.0013017,
          28.3772148
        ]
      }
    },
    {
      "type": "Feature",
      "properties": {
        "id": "a77e0503-6afe-49d1-ab21-d2b5d578cf4f",
        "name": "Asociación Lombriz Feliz",
        "sector": "Proyecto",
        "municipality": "La Oliva",
        "province": "Las Palmas",
        "island": "Fuerteventura",
        "address": "Calle Mareta del Barrial 42; 35640, La Oliva, Las Palmas",
        "phones": [
          "615 088 746"
        ],
        "emails": [
          "rde_wilde@hotmail.com"
        ],
        "url": ""
      },
      "geometry": {
        "type": "Point",
        "coordinates": [
          -13.910078,
          28.6446723
        ]
      }
    },
    {
      "type": "Feature",
      "properties": {
        "id": "533ed283-881f-4f7b-b8ee-6a35d48075e5",
        "name": "Asociación para la Inclusión, Integración y Desarrollo de Personas con Diversidad Funcional de Fuerteventura (AI2MAS)",
        "sector": "Proyecto",
        "municipality": "Puerto del Rosario",
        "province": "Las Palmas",
        "island": "Fuerteventura",
        "address": "Calle Alcaldes Mayores, 55, 35600 Puerto del Rosario, Las Palmas",
        "phones": [
          "671 144 509 | 642 814 969"
        ],
        "emails": [
          "asociacionai2mas@gmail.com"
        ],
        "url": ""
      },
      "geometry": {
        "type": "Point",
        "coordinates": [
          -13.8603833,
          28.5087937
        ]
      }
    }
  ]
}